NORAD_CAT_ID,OBJECT_NAME,OBJECT_TYPE,EPOCH,MEAN_MOTION,ECCENTRICITY,INCLINATION,RA_OF_ASC_NODE,ARG_OF_PERICENTER,MEAN_ANOMALY,BSTAR,MEAN_MOTION_DOT,MEAN_MOTION_DDOT,TLE_LINE0,TLE_LINE1,TLE_LINE2,SEMIMAJOR_AXIS,PERIOD,APOGEE,PERIGEE,DECAYED
51805.0,STARLINK-3605,PAYLOAD,2022-05-26 14:00:01,15.417718300000002,0.0001196,53.2173,60.7724,73.1534,44.1792,-0.01805,-0.00717031,0.0,0 STARLINK-3605,1 51805U 22017AP  22146.58334491 -.00717031  00000-0 -18050-1 0  9999,2 51805  53.2173  60.7724 0001196  73.1534  44.1792 15.41771830  1306,6819.017,93.399,441.698,440.066,0.0
51805.0,STARLINK-3605,PAYLOAD,2022-05-26 21:16:20,15.42224381,0.0001209,53.2145,59.3634,92.6018,267.5127,-0.0082627,-0.00345008,0.0,0 STARLINK-3605,1 51805U 22017AP  22146.88635213 -.00345008  00000-0 -82627-2 0  9991,2 51805  53.2145  59.3634 0001209  92.6018 267.5127 15.42224381 15456,6817.683000000001,93.372,440.372,438.724,0.0
51805.0,STARLINK-3605,PAYLOAD,2022-05-27 11:16:59,15.41293935,0.0001324,53.2141,56.6059,89.8381,270.2777,-0.0085775,-0.00347072,0.0,0 STARLINK-3605,1 51805U 22017AP  22147.47013733 -.00347072  00000-0 -85775-2 0  9994,2 51805  53.2141  56.6059 0001324  89.8381 270.2777 15.41293935 15544,6820.426,93.428,443.194,441.388,0.0
51805.0,STARLINK-3605,PAYLOAD,2022-05-27 14:00:01,15.40241255,0.0001254,53.2175,56.0485,77.8845,190.1814,-0.018953,-0.00715501,0.0,0 STARLINK-3605,1 51805U 22017AP  22147.58334491 -.00715501  00000-0 -18953-1 0  9992,2 51805  53.2175  56.0485 0001254  77.8845 190.1814 15.40241255  1300,6823.534000000002,93.492,446.254,444.543,0.0
51805.0,STARLINK-3605,PAYLOAD,2022-05-27 20:37:37,15.40784104,0.0001663,53.2137,54.77,93.3727,266.7469,-0.0080679,-0.00322034,0.0,0 STARLINK-3605,1 51805U 22017AP  22147.85946739 -.00322034  00000-0 -80679-2 0  9996,2 51805  53.2137  54.7700 0001663  93.3727 266.7469 15.40784104 15608,6821.931,93.459,444.93,442.661,0.0
51805.0,STARLINK-3605,PAYLOAD,2022-05-27 22:11:05,15.40713925,0.0001756,53.2139,54.4648,87.478,272.6427,-0.0071617999999999,-0.00286557,0.0,0 STARLINK-3605,1 51805U 22017AP  22147.92436972 -.00286557  00000-0 -71618-2 0  9999,2 51805  53.2139  54.4648 0001756  87.4780 272.6427 15.40713925 15618,6822.138000000001,93.463,445.201,442.805,0.0
51805.0,STARLINK-3605,PAYLOAD,2022-05-28 04:00:00,15.3934801,0.0001286,53.2175,53.3001,87.3116,176.1339,-0.019481,-0.00714101,0.0,0 STARLINK-3605,1 51805U 22017AP  22148.16667824 -.00714101  00000-0 -19481-1 0  9998,2 51805  53.2175  53.3001 0001286  87.3116 176.1339 15.39348010 15649,6826.1730000000025,93.546,448.916,447.16,0.0
51805.0,STARLINK-3605,PAYLOAD,2022-05-28 14:00:01,15.38711733,0.0001122,53.2174,51.3357,71.3548,341.9289,-0.019968,-0.00716539,0.0,0 STARLINK-3605,1 51805U 22017AP  22148.58334491 -.00716539  00000-0 -19968-1 0  9992,2 51805  53.2174  51.3357 0001122  71.3548 341.9289 15.38711733  1300,6828.055,93.585,450.686,449.154,0.0
51805.0,STARLINK-3605,PAYLOAD,2022-05-28 20:00:21,15.39170356,0.0002671,53.2143,50.1795,2.2741,357.8276,-0.0094176,-0.0035487,0.0,0 STARLINK-3605,1 51805U 22017AP  22148.83358315 -.00354870  00000-0 -94176-2 0  9992,2 51805  53.2143  50.1795 0002671   2.2741 357.8276 15.39170356 15754,6826.698,93.557,450.387,446.74,0.0
51805.0,STARLINK-3605,PAYLOAD,2022-05-29 02:14:38,15.38769472,0.0001489,53.2137,48.9639,149.6027,210.5065,-0.009288,-0.00345753,0.0,0 STARLINK-3605,1 51805U 22017AP  22149.09349798 -.00345753  00000-0 -92880-2 0  9996,2 51805  53.2137  48.9639 0001489 149.6027 210.5065 15.38769472 15795,6827.884,93.581,450.766,448.732,0.0
51805.0,STARLINK-3605,PAYLOAD,2022-05-29 12:00:00,15.37309585,0.0001219,53.2175,47.0257,66.9004,24.6544,-0.020908,-0.0071661,0.0,0 STARLINK-3605,1 51805U 22017AP  22149.50001157 -.00716610  00000-0 -20908-1 0  9991,2 51805  53.2175  47.0257 0001219  66.9004  24.6544 15.37309585 15857,6832.206,93.67,454.904,453.23800000000006,0.0
51805.0,STARLINK-3605,PAYLOAD,2022-05-29 14:00:01,15.37182882,0.0001341999999999,53.2171,46.6338,71.7492,121.2369,-0.021037,-0.00717969,0.0,0 STARLINK-3605,1 51805U 22017AP  22149.58334491 -.00717969  00000-0 -21037-1 0  9991,2 51805  53.2171  46.6338 0001342  71.7492 121.2369 15.37182882  1303,6832.581,93.678,455.36300000000006,453.529,0.0
51805.0,STARLINK-3605,PAYLOAD,2022-05-29 20:58:00,15.376096100000002,5.770000000000001e-05,53.2144,45.2932,5.6531,354.4480000000001,-0.0094755,-0.00339833,0.0,0 STARLINK-3605,1 51805U 22017AP  22149.87362236 -.00339833  00000-0 -94755-2 0  9999,2 51805  53.2144  45.2932 0000577   5.6531 354.4480 15.37609610 15916,6831.316999999999,93.652,453.576,452.788,0.0
51805.0,STARLINK-3605,PAYLOAD,2022-05-30 04:46:23,15.37041214,8.51e-05,53.2143,43.7658,20.2555,339.8483,-0.010395,-0.00364779,0.0,0 STARLINK-3605,1 51805U 22017AP  22150.19888462 -.00364779  00000-0 -10395-1 0  9994,2 51805  53.2143  43.7658 0000851  20.2555 339.8483 15.37041214 15962,6833.001,93.686,455.448,454.285,0.0
51805.0,STARLINK-3605,PAYLOAD,2022-05-30 12:00:00,15.35779299,0.0001319,53.2174,42.3336,78.4046,147.7976,-0.021932,-0.00715423,0.0,0 STARLINK-3605,1 51805U 22017AP  22150.50001157 -.00715423  00000-0 -21932-1 0  9992,2 51805  53.2174  42.3336 0001319  78.4046 147.7976 15.35779299 16002,6836.744000000002,93.763,459.511,457.707,0.0
51805.0,STARLINK-3605,PAYLOAD,2022-05-30 14:00:01,15.35496292,0.0001375,53.2164,41.9447,67.7994,259.4646,-0.015725,-0.00514645,0.0,0 STARLINK-3605,1 51805U 22017AP  22150.58334491 -.00514645  00000-0 -15725-1 0  9996,2 51805  53.2164  41.9447 0001375  67.7994 259.4646 15.35496292  1305,6837.584,93.781,460.389,458.509,0.0
51805.0,STARLINK-3605,PAYLOAD,2022-05-30 22:00:00,15.35143538,0.0001264,53.2174,40.3832,61.651,309.0252,-0.022489,-0.0071847,0.0,0 STARLINK-3605,1 51805U 22017AP  22150.91667824 -.00718470  00000-0 -22489-1 0  9999,2 51805  53.2174  40.3832 0001264  61.6510 309.0252 15.35143538  1308,6838.630999999999,93.802,461.361,459.632,0.0
51805.0,STARLINK-3605,PAYLOAD,2022-05-31 04:12:25,15.35707567,0.0002696,53.2145,39.1984,31.33,328.7864,-0.010083,-0.00340117,0.0,0 STARLINK-3605,1 51805U 22017AP  22151.17529648 -.00340117  00000-0 -10083-1 0  9995,2 51805  53.2145  39.1984 0002696  31.3300 328.7864 15.35707567 16111,6836.956999999999,93.768,460.665,456.978,0.0
51805.0,STARLINK-3605,PAYLOAD,2022-05-31 06:00:02,15.3463325,0.0001099,53.2171,38.8234,87.7448,325.886,-0.022823,-0.00717367,0.0,0 STARLINK-3605,1 51805U 22017AP  22151.25002315 -.00717367  00000-0 -22823-1 0  9991,2 51805  53.2171  38.8234 0001099  87.7448 325.8860 15.34633250  1303,6840.147,93.833,462.764,461.26,0.0
51805.0,STARLINK-3605,PAYLOAD,2022-05-31 12:00:00,15.34248831,0.000114,53.2173,37.6527,78.5321,276.8026,-0.023019,-0.00714891,0.0,0 STARLINK-3605,1 51805U 22017AP  22151.50001157 -.00714891  00000-0 -23019-1 0  9999,2 51805  53.2173  37.6527 0001140  78.5321 276.8026 15.34248831 16157,6841.29,93.857,463.934,462.375,0.0
51805.0,STARLINK-3605,PAYLOAD,2022-05-31 22:00:00,15.33612635,0.0001444,53.2172,35.7069,59.7253,77.7855,-0.023573,-0.00717247,0.0,0 STARLINK-3605,1 51805U 22017AP  22151.91667824 -.00717247  00000-0 -23573-1 0  9996,2 51805  53.2172  35.7069 0001444  59.7253  77.7855 15.33612635  1303,6843.181,93.896,466.035,464.0580000000001,0.0
51805.0,STARLINK-3605,PAYLOAD,2022-06-01 12:00:00,15.32719322,0.0001245,53.2173,32.9827,70.3057,48.6459,-0.024182,-0.0071533999999999,0.0,0 STARLINK-3605,1 51805U 22017AP  22152.50001157 -.00715340  00000-0 -24182-1 0  9992,2 51805  53.2173  32.9827 0001245  70.3057  48.6459 15.32719322 16319,6845.84,93.951,468.557,466.853,0.0
51805.0,STARLINK-3605,PAYLOAD,2022-06-01 20:00:01,15.32209843,0.0001440999999999,53.2173,31.4292,63.6941,95.2369,-0.024608,-0.00716272,0.0,0 STARLINK-3605,1 51805U 22017AP  22152.83334491 -.00716272  00000-0 -24608-1 0  9996,2 51805  53.2173  31.4292 0001441  63.6941  95.2369 15.32209843  1307,6847.358,93.982,470.209,468.236,0.0
51805.0,STARLINK-3605,PAYLOAD,2022-06-02 20:22:49,15.31825456,7.670000000000001e-05,53.2149,26.7241,30.3043,329.8003,-0.0070246,-0.00213079,0.0,0 STARLINK-3605,1 51805U 22017AP  22153.84918839 -.00213079  00000-0 -70246-2 0  9999,2 51805  53.2149  26.7241 0000767  30.3043 329.8003 15.31825456 16529,6848.503000000002,94.005,470.893,469.843,0.0
51805.0,STARLINK-3605,PAYLOAD,2022-06-03 01:04:57,15.31558885,0.0001381,53.2149,25.8141,43.0084,317.1026,-0.0078301,-0.00234836,0.0,0 STARLINK-3605,1 51805U 22017AP  22154.04510929 -.00234836  00000-0 -78301-2 0  9994,2 51805  53.2149  25.8141 0001381  43.0084 317.1026 15.31558885 16554,6849.2980000000025,94.022,472.109,470.217,0.0
51805.0,STARLINK-3605,PAYLOAD,2022-06-03 08:55:07,15.31218838,0.0001385,53.2161,24.2973,61.3664,298.7477,-0.0080323,-0.0023824,0.0,0 STARLINK-3605,1 51805U 22017AP  22154.37161177 -.00238240  00000-0 -80323-2 0  9997,2 51805  53.2161  24.2973 0001385  61.3664 298.7477 15.31218838 16606,6850.312,94.043,473.125,471.228,0.0
51805.0,STARLINK-3605,PAYLOAD,2022-06-03 15:11:27,15.30744967,0.000196,53.2164,23.0844,93.0387,267.0839,-0.0064993,-0.00191213,0.0,0 STARLINK-3605,1 51805U 22017AP  22154.63295871 -.00191213  00000-0 -64993-2 0  9998,2 51805  53.2164  23.0844 0001960  93.0387 267.0839 15.30744967 16647,6851.725,94.072,474.9330000000001,472.247,0.0
51805.0,STARLINK-3605,PAYLOAD,2022-06-04 00:36:17,15.30054401,0.0001706999999999,53.2155,21.2679,34.8154,325.2958,-0.0073483,-0.00211005,0.0,0 STARLINK-3605,1 51805U 22017AP  22155.02520050 -.00211005  00000-0 -73483-2 0  9998,2 51805  53.2155  21.2679 0001707  34.8154 325.2958 15.30054401 16700,6853.7869999999975,94.114,476.822,474.482,0.0
51805.0,STARLINK-3605,PAYLOAD,2022-06-04 08:26:58,15.29683403,0.0001885,53.2154,19.7547,299.9908,60.0906,-0.0083541,-0.00236312,0.0,0 STARLINK-3605,1 51805U 22017AP  22155.35206830 -.00236312  00000-0 -83541-2 0  9995,2 51805  53.2154  19.7547 0001885 299.9908  60.0906 15.29683403 16753,6854.895,94.137,478.052,475.468,0.0
